[{"OBJECT_NAME":"STARLINK-30502","OBJECT_ID":"2023-151K","EPOCH":"2026-03-09T01:50:18.055968","MEAN_MOTION":15.27576128,"ECCENTRICITY":0.00019247,"INCLINATION":43.0036,"RA_OF_ASC_NODE":339.3691,"ARG_OF_PERICENTER":254.6619,"MEAN_ANOMALY":105.402,"EPHEMERIS_TYPE":0,"CLASSIFICATION_TYPE":"U","NORAD_CAT_ID":57973,"ELEMENT_SET_NO":999,"REV_AT_EPOCH":13567,"BSTAR":-0.00011181,"MEAN_MOTION_DOT":-3.338e-5,"MEAN_MOTION_DDOT":0},{"OBJECT_NAME":"BLUEBON","OBJECT_ID":"2025-009CH","EPOCH":"2026-03-09T16:52:33.225312","MEAN_MOTION":15.29047254,"ECCENTRICITY":0.00011933,"INCLINATION":97.4017,"RA_OF_ASC_NODE":152.2033,"ARG_OF_PERICENTER":43.39,"MEAN_ANOMALY":316.7434,"EPHEMERIS_TYPE":0,"CLASSIFICATION_TYPE":"U","NORAD_CAT_ID":62688,"ELEMENT_SET_NO":999,"REV_AT_EPOCH":6376,"BSTAR":0.00037313027,"MEAN_MOTION_DOT":0.00010452,"MEAN_MOTION_DDOT":0}]
